[{"OBJECT_NAME":"STARLINK-5135","OBJECT_ID":"2022-125AT","EPOCH":"2026-03-09T16:06:10.090368","MEAN_MOTION":15.08844143,"ECCENTRICITY":0.00012368,"INCLINATION":53.2166,"RA_OF_ASC_NODE":213.9254,"ARG_OF_PERICENTER":85.55,"MEAN_ANOMALY":274.5633,"EPHEMERIS_TYPE":0,"CLASSIFICATION_TYPE":"U","NORAD_CAT_ID":54005,"ELEMENT_SET_NO":999,"REV_AT_EPOCH":18946,"BSTAR":-9.669634e-6,"MEAN_MOTION_DOT":-4.42e-6,"MEAN_MOTION_DDOT":0},{"OBJECT_NAME":"COSMOS 397 DEB","OBJECT_ID":"1971-015CK","EPOCH":"2026-03-09T09:36:23.028192","MEAN_MOTION":14.47470727,"ECCENTRICITY":0.03251303,"INCLINATION":65.6615,"RA_OF_ASC_NODE":77.0514,"ARG_OF_PERICENTER":356.2788,"MEAN_ANOMALY":3.5893,"EPHEMERIS_TYPE":0,"CLASSIFICATION_TYPE":"U","NORAD_CAT_ID":6843,"ELEMENT_SET_NO":999,"REV_AT_EPOCH":71464,"BSTAR":0.0026363984,"MEAN_MOTION_DOT":0.00018912,"MEAN_MOTION_DDOT":0}]
